      2.10          N: GNSS NAV DATA                        RINEX VERSION / TYPE
fic2rin                                 04/19/2019 00:19:35 PGM / RUN BY / DATE
                                                            END OF HEADER
 7 19  4 18 22  0  0.0-7.468275725842e-06-7.389644451905e-12 0.000000000000e+00
    8.000000000000e+01 1.075312500000e+02 4.876274544979e-09 2.668231820965e-01
    5.735084414482e-06 1.247704809066e-02 6.204470992088e-06 5.153594478607e+03
    4.248000000000e+05-1.303851604462e-08 9.213797796690e-01 1.844018697739e-07
    9.558713547130e-01 2.585312500000e+02-2.468791913950e+00-8.581071721795e-09
    5.653806932324e-10 1.000000000000e+00 2.049000000000e+03 0.000000000000e+00
    2.400000000000e+00 0.000000000000e+00-1.117587089539e-08 8.000000000000e+01
    4.176000000000e+05 4.000000000000e+00
 8 19  4 18 22  0  0.0-1.404071226716e-04-1.364242052659e-12 0.000000000000e+00
    1.020000000000e+02-6.387500000000e+01 4.088027425608e-09-3.029871801568e+00
   -3.250315785408e-06 4.407077794895e-03 1.451559364796e-05 5.153733474731e+03
    4.248000000000e+05-4.097819328308e-08 2.987609723560e+00 1.303851604462e-08
    9.705725491110e-01 1.039375000000e+02-2.619961273618e-01-7.668890868658e-09
   -1.178620522847e-10 1.000000000000e+00 2.049000000000e+03 0.000000000000e+00
    2.400000000000e+00 0.000000000000e+00 5.122274160385e-09 1.020000000000e+02
    4.176000000000e+05 4.000000000000e+00
24 19  4 18 22  0  0.0-6.496813148260e-05-5.684341886081e-13 0.000000000000e+00
    1.900000000000e+01 1.157187500000e+02 5.126642116651e-09 1.130642036122e+00
    5.917623639107e-06 8.273892221041e-03 6.521120667458e-06 5.153724311829e+03
    4.248000000000e+05-7.264316082001e-08 8.560706269149e-01 1.061707735062e-07
    9.390803993937e-01 2.411875000000e+02 6.056896638743e-01-8.633931066456e-09
    4.357324357192e-10 1.000000000000e+00 2.049000000000e+03 0.000000000000e+00
    2.400000000000e+00 0.000000000000e+00 2.793967723846e-09 1.900000000000e+01
    4.176000000000e+05 4.000000000000e+00
22 19  4 18 22  0  0.0-6.860904395580e-04-6.821210263297e-12 0.000000000000e+00
    4.000000000000e+01-5.103125000000e+01 5.818813805523e-09 2.261457033048e+00
   -2.708286046982e-06 7.251518080011e-03 3.190711140633e-06 5.153818933487e+03
    4.248000000000e+05 1.154839992523e-07-1.258410890276e+00 3.352761268616e-08
    9.267549854193e-01 2.956562500000e+02-1.366522877003e+00-8.798223624186e-09
   -4.760912596834e-10 1.000000000000e+00 2.049000000000e+03 0.000000000000e+00
    2.400000000000e+00 0.000000000000e+00-1.816079020500e-08 4.000000000000e+01
    4.176000000000e+05 4.000000000000e+00
30 19  4 18 22  0  0.0-8.896738290787e-05-6.934897101019e-12 0.000000000000e+00
    4.200000000000e+01 1.045625000000e+02 5.157357681791e-09 2.621014223534e-01
    5.505979061127e-06 3.876994596794e-03 5.744397640228e-06 5.153600458145e+03
    4.248000000000e+05 3.166496753693e-08 9.501270079179e-01 1.862645149231e-08
    9.413169407375e-01 2.575000000000e+02-2.999630443883e+00-8.612501602404e-09
    5.796670026002e-10 1.000000000000e+00 2.049000000000e+03 0.000000000000e+00
    2.400000000000e+00 0.000000000000e+00 3.725290298462e-09 4.200000000000e+01
    4.176000000000e+05 4.000000000000e+00
19 19  4 18 22  0  0.0-3.291037864983e-04 4.433786671143e-12 0.000000000000e+00
    2.200000000000e+01-3.987500000000e+01 3.884804674851e-09-5.062160562621e-01
   -1.985579729080e-06 9.522435022518e-03 1.350976526737e-05 5.153635490417e+03
    4.248000000000e+05-1.024454832077e-07 3.100852373188e+00 6.332993507385e-08
    9.821997956725e-01 1.335312500000e+02 1.377302292317e+00-7.783538501335e-09
    7.143154683922e-13 1.000000000000e+00 2.049000000000e+03 0.000000000000e+00
    2.400000000000e+00 0.000000000000e+00-1.536682248116e-08 2.200000000000e+01
    4.176000000000e+05 4.000000000000e+00
29 19  4 18 22  0  0.0 2.222405746579e-04-9.094947017729e-12 0.000000000000e+00
    2.200000000000e+01-3.281250000000e+01 3.850517532368e-09-2.582817796751e+00
   -1.678243279457e-06 9.491506498307e-04 1.344829797745e-05 5.153771755219e+03
    4.248000000000e+05 1.862645149231e-08 3.065626199682e+00 4.284083843231e-08
    9.858359092798e-01 1.358750000000e+02 1.605967302939e+00-7.588530378464e-09
   -4.643050544549e-12 1.000000000000e+00 2.049000000000e+03 0.000000000000e+00
    2.400000000000e+00 0.000000000000e+00-9.778887033463e-09 2.200000000000e+01
    4.176000000000e+05 4.000000000000e+00
16 19  4 18 22  0  0.0-3.365939483047e-05-2.842170943040e-12 0.000000000000e+00
    5.000000000000e+01-9.200000000000e+01 4.497687346731e-09-2.395017467234e+00
   -5.029141902924e-06 1.083195873071e-02 4.258006811142e-06 5.153555566788e+03
    4.248000000000e+05 1.136213541031e-07 2.040194872134e+00-1.806765794754e-07
    9.832917513740e-01 3.092812500000e+02 5.683709733096e-01-8.227128407207e-09
   -3.214419607765e-10 1.000000000000e+00 2.049000000000e+03 0.000000000000e+00
    2.400000000000e+00 0.000000000000e+00-1.071020960808e-08 5.000000000000e+01
    4.176000000000e+05 4.000000000000e+00
15 19  4 18 22  0  0.0-3.176708705723e-04 2.046363078989e-12 0.000000000000e+00
    2.800000000000e+01-2.346875000000e+01 4.855916554130e-09 2.154489361324e+00
   -1.290813088417e-06 1.127534150146e-02 1.282617449760e-05 5.153680198669e+03
    4.248000000000e+05-1.452863216400e-07-2.334009006901e-01-1.676380634308e-07
    9.284543754286e-01 1.170625000000e+02 7.699429195788e-01-8.148910863418e-09
   -3.057270204718e-10 1.000000000000e+00 2.049000000000e+03 0.000000000000e+00
    2.400000000000e+00 0.000000000000e+00-1.117587089539e-08 2.800000000000e+01
    4.176000000000e+05 4.000000000000e+00
21 19  4 18 22  0  0.0-2.097068354487e-04 7.617018127348e-12 0.000000000000e+00
    3.000000000000e+01 8.403125000000e+01 5.168786729286e-09-9.584248606653e-01
    4.526227712631e-06 2.470869559329e-02 8.232891559601e-06 5.153754362106e+03
    4.248000000000e+05-3.930181264877e-07-2.292780300577e+00 1.937150955200e-07
    9.479275734912e-01 2.207187500000e+02-1.451058576906e+00-8.838939605885e-09
    6.175257224250e-10 1.000000000000e+00 2.049000000000e+03 0.000000000000e+00
    2.400000000000e+00 0.000000000000e+00-1.024454832077e-08 3.000000000000e+01
    4.176000000000e+05 4.000000000000e+00
20 19  4 18 22  0  0.0 5.240715108812e-04 3.410605131648e-13 0.000000000000e+00
    1.900000000000e+01-4.665625000000e+01 5.744882154544e-09 5.023912452405e-01
   -2.687796950340e-06 4.353829659522e-03 3.773719072342e-06 5.153673673630e+03
    4.248000000000e+05 1.676380634308e-08-1.307238505125e+00-7.636845111847e-08
    9.300118038675e-01 2.929062500000e+02 2.336880533689e+00-8.914299887800e-09
   -4.414469594664e-10 1.000000000000e+00 2.049000000000e+03 0.000000000000e+00
    2.400000000000e+00 0.000000000000e+00-8.847564458847e-09 1.900000000000e+01
    4.176000000000e+05 4.000000000000e+00
12 19  4 18 22  0  0.0 2.500782720745e-04-3.410605131648e-12 0.000000000000e+00
    7.100000000000e+01-7.581250000000e+01 4.541617748037e-09-5.082207894587e-01
   -3.842636942863e-06 7.655728608370e-03 4.246830940247e-06 5.153658018112e+03
    4.248000000000e+05-6.332993507385e-08 2.021275612391e+00 7.450580596924e-08
    9.829264636554e-01 3.148437500000e+02 1.066214367582e+00-8.367134239012e-09
   -3.257278535868e-10 1.000000000000e+00 2.049000000000e+03 0.000000000000e+00
    2.400000000000e+00 0.000000000000e+00-1.210719347000e-08 7.100000000000e+01
    4.176000000000e+05 4.000000000000e+00
 9 19  4 18 22  0  0.0 4.265070892870e-04-6.480149750132e-12 0.000000000000e+00
    8.100000000000e+01-1.412500000000e+01 4.197674850007e-09-2.938120199723e+00
   -6.183981895447e-07 1.295859925449e-03 1.425296068192e-05 5.153707380295e+03
    4.248000000000e+05-5.215406417847e-08-1.544099016893e-01-9.313225746155e-08
    9.529948935025e-01 1.011250000000e+02 1.749751755590e+00-7.809968173666e-09
   -3.003696544589e-10 1.000000000000e+00 2.049000000000e+03 0.000000000000e+00
    2.400000000000e+00 0.000000000000e+00 1.396983861923e-09 8.100000000000e+01
    4.176000000000e+05 4.000000000000e+00
 6 19  4 18 22  0  0.0 2.274056896567e-04-9.549694368616e-12 0.000000000000e+00
    6.300000000000e+01 7.037500000000e+01 4.393040130612e-09 1.051449947328e+00
    3.540888428688e-06 1.614454085939e-03 7.702037692070e-06 5.153561922073e+03
    4.248000000000e+05-3.539025783539e-08-2.237844151329e+00-6.146728992462e-08
    9.747090538473e-01 2.380937500000e+02-1.115733088339e+00-8.044263647298e-09
    4.728768400756e-10 1.000000000000e+00 2.049000000000e+03 0.000000000000e+00
    2.400000000000e+00 0.000000000000e+00 4.190951585770e-09 6.300000000000e+01
    4.176000000000e+05 4.000000000000e+00
13 19  4 18 22  0  0.0-6.725313141942e-05 1.591615728103e-12 0.000000000000e+00
    2.200000000000e+01 2.081250000000e+01 3.880161624306e-09 1.981307891712e+00
    1.130625605583e-06 3.590969718061e-03 1.331605017185e-05 5.153673629761e+03
    4.248000000000e+05 5.587935447693e-08-1.785739480360e-02-8.195638656616e-08
    9.685241551243e-01 1.274687500000e+02 1.324190492615e+00-7.714249900901e-09
   -2.500104139373e-11 1.000000000000e+00 2.049000000000e+03 0.000000000000e+00
    2.400000000000e+00 0.000000000000e+00-1.117587089539e-08 2.200000000000e+01
    4.176000000000e+05 4.000000000000e+00
27 19  4 18 22  0  0.0-1.115561462939e-04-8.753886504564e-12 0.000000000000e+00
    7.200000000000e+01-6.065625000000e+01 3.854446267444e-09 3.020763496593e+00
   -3.172084689140e-06 7.024724036455e-03 1.482851803303e-05 5.153647993088e+03
    4.248000000000e+05-7.450580596924e-08 2.998655316819e+00-9.685754776001e-08
    9.788594358246e-01 1.021562500000e+02 4.664401065884e-01-7.541385557550e-09
   -1.142904749427e-10 1.000000000000e+00 2.049000000000e+03 0.000000000000e+00
    2.400000000000e+00 0.000000000000e+00 1.396983861923e-09 7.200000000000e+01
    4.176000000000e+05 4.000000000000e+00
